start=new Date('2023-03-23T00:00:00.000Z').valueOf();
sats=[{"EPOCH":"2023-03-22T05:18:16.895232","MEAN_MOTION_DDOT":"0.0000000000000","DECAY_DATE":null,"TLE_LINE1":"1 55650U 23021Y   23081.22102888 -.00005431  00000-0 -43453-4 0  9992","GP_ID":"228630527","ARG_OF_PERICENTER":"262.5786","RCS_SIZE":"LARGE","REV_AT_EPOCH":"564","MEAN_ELEMENT_THEORY":"SGP4","PERIOD":"91.725","ECCENTRICITY":"0.00034810","OBJECT_TYPE":"PAYLOAD","COUNTRY_CODE":"US","BSTAR":"-0.00004345300000","EPHEMERIS_TYPE":"0","SITE":"AFWTR","SEMIMAJOR_AXIS":"6737.291","NORAD_CAT_ID":"55650","OBJECT_NAME":"STARLINK-5494","OBJECT_ID":"2023-021Y","LAUNCH_DATE":"2023-02-17","TLE_LINE2":"2 55650  70.0002  58.6986 0003481 262.5786  97.5014 15.69910109  5648","ELEMENT_SET_NO":"999","CLASSIFICATION_TYPE":"U","MEAN_MOTION":"15.69910109","REF_FRAME":"TEME","MEAN_ANOMALY":"97.5014","PERIAPSIS":"356.811","FILE":"3867249","CENTER_NAME":"EARTH","APOAPSIS":"361.501","MEAN_MOTION_DOT":"-0.00005431","INCLINATION":"70.0002","RA_OF_ASC_NODE":"58.6986","TIME_SYSTEM":"UTC"},{"MEAN_MOTION_DOT":"0.00002145","APOAPSIS":"361.329","CENTER_NAME":"EARTH","TIME_SYSTEM":"UTC","INCLINATION":"70.0007","RA_OF_ASC_NODE":"57.4470","REF_FRAME":"TEME","MEAN_MOTION":"15.69923880","CLASSIFICATION_TYPE":"U","MEAN_ANOMALY":"89.9572","ELEMENT_SET_NO":"999","FILE":"3867868","PERIAPSIS":"356.905","COUNTRY_CODE":"US","BSTAR":"0.00001960700000","OBJECT_TYPE":"PAYLOAD","SITE":"AFWTR","NORAD_CAT_ID":"55651","SEMIMAJOR_AXIS":"6737.252","EPHEMERIS_TYPE":"0","TLE_LINE2":"2 55651  70.0007  57.4470 0003283 270.1247  89.9572 15.69923880  5718","LAUNCH_DATE":"2023-02-17","OBJECT_ID":"2023-021Z","OBJECT_NAME":"STARLINK-5506","TLE_LINE1":"1 55651U 23021Z   23081.66757770  .00002145  00000-0  19607-4 0  9998","GP_ID":"228643435","REV_AT_EPOCH":"571","RCS_SIZE":"LARGE","ARG_OF_PERICENTER":"270.1247","EPOCH":"2023-03-22T16:01:18.713280","DECAY_DATE":null,"MEAN_MOTION_DDOT":"0.0000000000000","ECCENTRICITY":"0.00032830","MEAN_ELEMENT_THEORY":"SGP4","PERIOD":"91.724"},{"TLE_LINE1":"1 55652U 23021AA  23081.22083076 -.00002599  00000-0 -19867-4 0  9995","GP_ID":"228630937","REV_AT_EPOCH":"563","ARG_OF_PERICENTER":"263.6612","RCS_SIZE":"LARGE","EPOCH":"2023-03-22T05:17:59.777664","DECAY_DATE":null,"MEAN_MOTION_DDOT":"0.0000000000000","ECCENTRICITY":"0.00033360","MEAN_ELEMENT_THEORY":"SGP4","PERIOD":"91.725","COUNTRY_CODE":"US","BSTAR":"-0.00001986700000","OBJECT_TYPE":"PAYLOAD","SEMIMAJOR_AXIS":"6737.294","SITE":"AFWTR","NORAD_CAT_ID":"55652","EPHEMERIS_TYPE":"0","TLE_LINE2":"2 55652  69.9987  58.6981 0003336 263.6612  96.4204 15.69909165  5631","LAUNCH_DATE":"2023-02-17","OBJECT_ID":"2023-021AA","OBJECT_NAME":"STARLINK-5487","REF_FRAME":"TEME","MEAN_MOTION":"15.69909165","CLASSIFICATION_TYPE":"U","MEAN_ANOMALY":"96.4204","ELEMENT_SET_NO":"999","FILE":"3867249","PERIAPSIS":"356.911","MEAN_MOTION_DOT":"-0.00002599","APOAPSIS":"361.406","CENTER_NAME":"EARTH","TIME_SYSTEM":"UTC","INCLINATION":"69.9987","RA_OF_ASC_NODE":"58.6981"},{"ECCENTRICITY":"0.00032950","PERIOD":"91.725","MEAN_ELEMENT_THEORY":"SGP4","RCS_SIZE":"LARGE","ARG_OF_PERICENTER":"268.7921","REV_AT_EPOCH":"570","GP_ID":"228643436","TLE_LINE1":"1 55653U 23021AB  23081.66632608 -.00002168  00000-0 -16283-4 0  9996","MEAN_MOTION_DDOT":"0.0000000000000","DECAY_DATE":null,"EPOCH":"2023-03-22T15:59:30.573312","OBJECT_ID":"2023-021AB","LAUNCH_DATE":"2023-02-17","TLE_LINE2":"2 55653  70.0003  57.4430 0003295 268.7921  91.2897 15.69903354  5706","OBJECT_NAME":"STARLINK-5067","EPHEMERIS_TYPE":"0","SITE":"AFWTR","SEMIMAJOR_AXIS":"6737.311","NORAD_CAT_ID":"55653","OBJECT_TYPE":"PAYLOAD","BSTAR":"-0.00001628300000","COUNTRY_CODE":"US","FILE":"3867868","PERIAPSIS":"356.956","MEAN_ANOMALY":"91.2897","CLASSIFICATION_TYPE":"U","MEAN_MOTION":"15.69903354","REF_FRAME":"TEME","ELEMENT_SET_NO":"999","TIME_SYSTEM":"UTC","RA_OF_ASC_NODE":"57.4430","INCLINATION":"70.0003","APOAPSIS":"361.395","MEAN_MOTION_DOT":"-0.00002168","CENTER_NAME":"EARTH"},{"GP_ID":"228637200","TLE_LINE1":"1 55654U 23021AC  23081.34941793  .00000177  00000-0  32417-5 0  9994","ARG_OF_PERICENTER":"272.6532","RCS_SIZE":"LARGE","REV_AT_EPOCH":"566","EPOCH":"2023-03-22T08:23:09.709152","DECAY_DATE":null,"MEAN_MOTION_DDOT":"0.0000000000000","ECCENTRICITY":"0.00027020","MEAN_ELEMENT_THEORY":"SGP4","PERIOD":"91.724","OBJECT_TYPE":"PAYLOAD","BSTAR":"0.00000324170000","COUNTRY_CODE":"US","EPHEMERIS_TYPE":"0","SEMIMAJOR_AXIS":"6737.262","SITE":"AFWTR","NORAD_CAT_ID":"55654","OBJECT_ID":"2023-021AC","LAUNCH_DATE":"2023-02-17","TLE_LINE2":"2 55654  70.0026  58.3439 0002702 272.6532  87.4355 15.69920228  5665","OBJECT_NAME":"STARLINK-5070","CLASSIFICATION_TYPE":"U","REF_FRAME":"TEME","MEAN_MOTION":"15.69920228","MEAN_ANOMALY":"87.4355","ELEMENT_SET_NO":"999","FILE":"3867545","PERIAPSIS":"357.307","APOAPSIS":"360.948","MEAN_MOTION_DOT":"0.00000177","CENTER_NAME":"EARTH","TIME_SYSTEM":"UTC","INCLINATION":"70.0026","RA_OF_ASC_NODE":"58.3439"},{"CENTER_NAME":"EARTH","MEAN_MOTION_DOT":"0.00001676","APOAPSIS":"361.014","RA_OF_ASC_NODE":"58.6939","INCLINATION":"70.0002","TIME_SYSTEM":"UTC","ELEMENT_SET_NO":"999","MEAN_ANOMALY":"101.0966","REF_FRAME":"TEME","MEAN_MOTION":"15.69927572","CLASSIFICATION_TYPE":"U","PERIAPSIS":"357.198","FILE":"3867249","SEMIMAJOR_AXIS":"6737.241","SITE":"AFWTR","NORAD_CAT_ID":"55655","EPHEMERIS_TYPE":"0","COUNTRY_CODE":"US","BSTAR":"0.00001569900000","OBJECT_TYPE":"PAYLOAD","OBJECT_NAME":"STARLINK-5267","TLE_LINE2":"2 55655  70.0002  58.6939 0002832 258.9912 101.0966 15.69927572  5638","LAUNCH_DATE":"2023-02-17","OBJECT_ID":"2023-021AD","MEAN_MOTION_DDOT":"0.0000000000000","DECAY_DATE":null,"EPOCH":"2023-03-22T05:16:09.650496","REV_AT_EPOCH":"563","RCS_SIZE":"LARGE","ARG_OF_PERICENTER":"258.9912","GP_ID":"228630524","TLE_LINE1":"1 55655U 23021AD  23081.21955614  .00001676  00000-0  15699-4 0  9995","PERIOD":"91.724","MEAN_ELEMENT_THEORY":"SGP4","ECCENTRICITY":"0.00028320"},{"CENTER_NAME":"EARTH","MEAN_MOTION_DOT":"0.00002647","APOAPSIS":"361.024","INCLINATION":"70.0016","RA_OF_ASC_NODE":"57.4408","TIME_SYSTEM":"UTC","ELEMENT_SET_NO":"999","MEAN_MOTION":"15.69926376","REF_FRAME":"TEME","CLASSIFICATION_TYPE":"U","MEAN_ANOMALY":"81.7352","PERIAPSIS":"357.195","FILE":"3867868","COUNTRY_CODE":"US","BSTAR":"0.00002377500000","OBJECT_TYPE":"PAYLOAD","SITE":"AFWTR","SEMIMAJOR_AXIS":"6737.245","NORAD_CAT_ID":"55656","EPHEMERIS_TYPE":"0","OBJECT_NAME":"STARLINK-5326","TLE_LINE2":"2 55656  70.0016  57.4408 0002842 278.3522  81.7352 15.69926376  5708","LAUNCH_DATE":"2023-02-17","OBJECT_ID":"2023-021AE","EPOCH":"2023-03-22T15:59:11.357088","DECAY_DATE":null,"MEAN_MOTION_DDOT":"0.0000000000000","GP_ID":"228643433","TLE_LINE1":"1 55656U 23021AE  23081.66610367  .00002647  00000-0  23775-4 0  9991","REV_AT_EPOCH":"570","RCS_SIZE":"LARGE","ARG_OF_PERICENTER":"278.3522","MEAN_ELEMENT_THEORY":"SGP4","PERIOD":"91.724","ECCENTRICITY":"0.00028420"},{"APOAPSIS":"361.185","MEAN_MOTION_DOT":"0.00002160","CENTER_NAME":"EARTH","TIME_SYSTEM":"UTC","INCLINATION":"70.0015","RA_OF_ASC_NODE":"57.4407","CLASSIFICATION_TYPE":"U","REF_FRAME":"TEME","MEAN_MOTION":"15.69926656","MEAN_ANOMALY":"85.9523","ELEMENT_SET_NO":"999","FILE":"3867869","PERIAPSIS":"357.032","OBJECT_TYPE":"PAYLOAD","COUNTRY_CODE":"US","BSTAR":"0.00001972700000","EPHEMERIS_TYPE":"0","SITE":"AFWTR","SEMIMAJOR_AXIS":"6737.244","NORAD_CAT_ID":"55657","LAUNCH_DATE":"2023-02-17","OBJECT_ID":"2023-021AF","TLE_LINE2":"2 55657  70.0015  57.4407 0003082 274.1320  85.9523 15.69926656  5701","OBJECT_NAME":"STARLINK-5328","TLE_LINE1":"1 55657U 23021AF  23081.66578322  .00002160  00000-0  19727-4 0  9998","GP_ID":"228642956","ARG_OF_PERICENTER":"274.1320","RCS_SIZE":"LARGE","REV_AT_EPOCH":"570","EPOCH":"2023-03-22T15:58:43.670208","DECAY_DATE":null,"MEAN_MOTION_DDOT":"0.0000000000000","ECCENTRICITY":"0.00030820","MEAN_ELEMENT_THEORY":"SGP4","PERIOD":"91.724"},{"SITE":"AFWTR","SEMIMAJOR_AXIS":"6737.211","NORAD_CAT_ID":"55658","EPHEMERIS_TYPE":"0","COUNTRY_CODE":"US","BSTAR":"0.00008383600000","OBJECT_TYPE":"PAYLOAD","OBJECT_NAME":"STARLINK-5307","TLE_LINE2":"2 55658  70.0014  57.4434 0003252 272.4211  87.6612 15.69938125  5702","LAUNCH_DATE":"2023-02-17","OBJECT_ID":"2023-021AG","DECAY_DATE":null,"MEAN_MOTION_DDOT":"0.0000000000000","EPOCH":"2023-03-22T15:59:47.530176","REV_AT_EPOCH":"570","RCS_SIZE":"LARGE","ARG_OF_PERICENTER":"272.4211","TLE_LINE1":"1 55658U 23021AG  23081.66652234  .00009885  00000-0  83836-4 0  9997","GP_ID":"228643455","PERIOD":"91.723","MEAN_ELEMENT_THEORY":"SGP4","ECCENTRICITY":"0.00032520","CENTER_NAME":"EARTH","MEAN_MOTION_DOT":"0.00009885","APOAPSIS":"361.267","RA_OF_ASC_NODE":"57.4434","INCLINATION":"70.0014","TIME_SYSTEM":"UTC","ELEMENT_SET_NO":"999","MEAN_ANOMALY":"87.6612","REF_FRAME":"TEME","MEAN_MOTION":"15.69938125","CLASSIFICATION_TYPE":"U","PERIAPSIS":"356.885","FILE":"3867869"},{"OBJECT_ID":"2023-021AH","LAUNCH_DATE":"2023-02-17","TLE_LINE2":"2 55659  70.0014  57.4384 0002843 265.9707  94.1164 15.69927665  5701","OBJECT_NAME":"STARLINK-5477","OBJECT_TYPE":"PAYLOAD","BSTAR":"0.00002590200000","COUNTRY_CODE":"US","EPHEMERIS_TYPE":"0","SITE":"AFWTR","NORAD_CAT_ID":"55659","SEMIMAJOR_AXIS":"6737.241","ECCENTRICITY":"0.00028430","MEAN_ELEMENT_THEORY":"SGP4","PERIOD":"91.724","TLE_LINE1":"1 55659U 23021AH  23081.66568198  .00002903  00000-0  25902-4 0  9997","GP_ID":"228642952","ARG_OF_PERICENTER":"265.9707","RCS_SIZE":"LARGE","REV_AT_EPOCH":"570","EPOCH":"2023-03-22T15:58:34.923072","MEAN_MOTION_DDOT":"0.0000000000000","DECAY_DATE":null,"TIME_SYSTEM":"UTC","INCLINATION":"70.0014","RA_OF_ASC_NODE":"57.4384","APOAPSIS":"361.021","MEAN_MOTION_DOT":"0.00002903","CENTER_NAME":"EARTH","FILE":"3867869","PERIAPSIS":"357.191","CLASSIFICATION_TYPE":"U","REF_FRAME":"TEME","MEAN_MOTION":"15.69927665","MEAN_ANOMALY":"94.1164","ELEMENT_SET_NO":"999"}];
